ALOS (DAICHI)           
1 28931U 06002A   26093.89492223  .00002578  00000+0  43922-3 0  9994
2 28931  98.1261  49.7320 0001108 115.1517 244.9803 14.69893925 77187
H-2A R/B                
1 28932U 06002B   26093.87727723  .00018525  00000+0  90644-3 0  9991
2 28932  98.2464 243.0851 0052463 155.1006 205.2773 15.17029295 98251
RESURS-DK 1             
1 29228U 06021A   26093.59509700  .00004233  00000+0  24586-3 0  9996
2 29228  69.9335 172.5971 0001899  37.3825 322.7473 15.12902821 91297
CZ-4B R/B               
1 29507U 06046C   26093.67413558  .00009266  00000+0  46327-3 0  9995
2 29507  97.5537 138.5131 0033278 178.3377 181.7973 15.17174491 63838
CZ-2C R/B               
1 31114U 07010B   26093.87663358  .00000231  00000+0  12510-3 0  9991
2 31114  98.4005 205.8963 0058321 220.0699 139.6170 14.20256166983299
COSMOS 2428             
1 31792U 07029A   26093.59614012  .00000010  00000+0  31289-4 0  9995
2 31792  70.9424 151.0698 0009697 251.2339 108.7730 14.12948958967612
SL-16 R/B               
1 31793U 07029B   26093.53066716 -.00000073  00000+0 -13258-4 0  9999
2 31793  70.9740 120.1684 0002890 276.9700 193.7472 14.14843981968889
KORONAS-FOTON           
1 33504U 09003A   26093.85103635  .00024373  00000+0  53096-3 0  9992
2 33504  82.4284 249.7014 0011465  67.6718 292.5744 15.44058563949628
CZ-2C R/B               
1 37731U 11030B   26093.87524653  .00002507  00000+0  32107-3 0  9995
2 37731  97.8589  50.6430 0050925 268.4412 148.7353 14.81315501793824
H-2A R/B                
1 38341U 12025E   26093.89005146  .00004781  00000+0  43151-3 0  9998
2 38341  98.4773  62.9643 0043226 229.4419 130.3033 14.95351172751988
SHIJIAN-16 (SJ-16)      
1 39358U 13057A   26093.83479650  .00001823  00000+0  18025-3 0  9998
2 39358  74.9715 137.4864 0015329  47.3009 312.9467 14.92440646675256
SL-4 R/B                
1 39679U 14021B   26093.74841384  .00025560  00000+0  54336-3 0  9992
2 39679  51.6063 214.9494 0094520 194.4220 165.4063 15.40122549660136
ALOS-2                  
1 39766U 14029A   26093.13423900  .00000218  00000+0  36025-4 0  9999
2 39766  97.9197 191.3762 0001873 101.9153 258.2269 14.79449708640482
YAOGAN-29               
1 41038U 15069A   26093.82641523  .00000723  00000+0  95567-4 0  9995
2 41038  98.0102 122.3192 0000101 195.1511 164.9699 14.83023331559600
ASTRO-H (HITOMI)        
1 41337U 16012A   26093.61956448  .00004921  00000+0  28817-3 0  9995
2 41337  30.9990 195.6484 0009679 222.5414 137.4474 15.10171847556009
HXMT (HUIYAN)           
1 42758U 17034A   26093.78771126  .00011156  00000+0  54601-3 0  9992
2 42758  43.0138 237.1025 0031031  31.4021 328.8673 15.17801195486357
